IRIDIUM 159             
1 43578U 18061K   25238.57377862  .00000208  00000+0  67156-4 0  9996
2 43578  86.4033 179.8166 0002274  79.4643 280.6809 14.34218633371154
IRIDIUM 180             
1 43922U 19002A   25238.57327426  .00000057  00000+0  13406-4 0  9997
2 43922  86.3962 116.7872 0002032  84.8180 275.3248 14.34218003346767
IRIDIUM 176             
1 43923U 19002B   25237.70337303  .00000684  00000+0  10465-3 0  9994
2 43923  86.6088 117.1369 0002171 103.1932 256.9527 14.72253237355776
IRIDIUM 168             
1 43924U 19002C   25237.93901504  .00000014  00000+0 -20965-5 0  9996
2 43924  86.3966 117.1210 0001999  85.0328 275.1096 14.34217674346652
IRIDIUM 173             
1 43925U 19002D   25238.41470911  .00000065  00000+0  16252-4 0  9992
2 43925  86.3960 116.8234 0001941  88.1326 272.0092 14.34218089346707
IRIDIUM 169             
1 43926U 19002E   25238.19665669  .00000195  00000+0  57094-4 0  9997
2 43926  86.4280 148.5200 0001898 121.5907 238.5477 14.38611323347816
IRIDIUM 172             
1 43927U 19002F   25237.71068025  .00000232  00000+0  75680-4 0  9991
2 43927  86.3961 117.1247 0002011  78.7377 281.4045 14.34217491346616
IRIDIUM 175             
1 43928U 19002G   25238.58203835  .00000302  00000+0  43885-4 0  9998
2 43928  86.1453  65.2558 0003057  98.1474 262.0090 14.72246855355897
